NORAD_CAT_ID,OBJECT_NAME,OBJECT_TYPE,EPOCH,MEAN_MOTION,ECCENTRICITY,INCLINATION,RA_OF_ASC_NODE,ARG_OF_PERICENTER,MEAN_ANOMALY,BSTAR,MEAN_MOTION_DOT,MEAN_MOTION_DDOT,TLE_LINE0,TLE_LINE1,TLE_LINE2,SEMIMAJOR_AXIS,PERIOD,APOGEE,PERIGEE,DECAYED
51898.0,STARLINK-3597,PAYLOAD,2023-01-05 17:21:21,15.08850574,0.0002572,53.2125,161.9303,51.4296,308.6926,7.6671e-05,9.32e-06,0.0,0 STARLINK-3597,1 51898U 22022AY  23005.72316751  .00000932  00000-0  76671-4 0  9996,2 51898  53.2125 161.9303 0002572  51.4296 308.6926 15.08850574 48332,6917.848000000001,95.437,541.492,537.934,0.0
51898.0,STARLINK-3597,PAYLOAD,2023-01-06 12:26:00,15.08832084,0.0002432,53.2143,158.3621,45.7795,314.3396,-0.00014728,-2.631e-05,0.0,0 STARLINK-3597,1 51898U 22022AY  23006.51806559 -.00002631  00000-0 -14728-3 0  9998,2 51898  53.2143 158.3621 0002432  45.7795 314.3396 15.08832084 48454,6917.905,95.438,541.452,538.087,0.0
51898.0,STARLINK-3597,PAYLOAD,2023-01-06 20:22:56,15.08836204,0.0002528,53.2155,156.8729,46.8808,313.2396,-6.484e-05,-1.32e-05,0.0,0 STARLINK-3597,1 51898U 22022AY  23006.84926131 -.00001320  00000-0 -64840-4 0  9998,2 51898  53.2155 156.8729 0002528  46.8808 313.2396 15.08836204 48504,6917.892,95.438,541.506,538.008,0.0
51898.0,STARLINK-3597,PAYLOAD,2023-01-07 02:44:28,15.08842972,0.0002445,53.215,155.6857,47.2234,312.8964,-1.8648e-05,-5.85e-06,0.0,0 STARLINK-3597,1 51898U 22022AY  23007.11421551 -.00000585  00000-0 -18648-4 0  9992,2 51898  53.2150 155.6857 0002445  47.2234 312.8964 15.08842972 48543,6917.871,95.437,541.428,538.045,0.0
51898.0,STARLINK-3597,PAYLOAD,2023-01-07 09:06:00,15.08843807,0.0002469,53.2144,154.4961,48.5637,311.5567,4.0714e-05,3.6000000000000007e-06,0.0,0 STARLINK-3597,1 51898U 22022AY  23007.37917350  .00000360  00000-0  40714-4 0  9995,2 51898  53.2144 154.4961 0002469  48.5637 311.5567 15.08843807 48583,6917.8690000000015,95.437,541.442,538.026,0.0
51898.0,STARLINK-3597,PAYLOAD,2023-01-08 12:07:34,15.08829866,0.0002254,53.2143,149.4414,44.2704,315.8468,0.00012238,1.659e-05,0.0,0 STARLINK-3597,1 51898U 22022AY  23008.50526250  .00001659  00000-0  12238-3 0  9997,2 51898  53.2143 149.4414 0002254  44.2704 315.8468 15.08829866 48754,6917.911,95.438,541.336,538.217,0.0
51898.0,STARLINK-3597,PAYLOAD,2023-01-08 15:18:20,15.088309099999998,0.0002287,53.2144,148.8466,44.1994,315.9181,0.00013344,1.836e-05,0.0,0 STARLINK-3597,1 51898U 22022AY  23008.63774257  .00001836  00000-0  13344-3 0  9999,2 51898  53.2144 148.8466 0002287  44.1994 315.9181 15.08830910 48778,6917.908,95.438,541.355,538.191,0.0
51898.0,STARLINK-3597,PAYLOAD,2023-01-09 02:26:03,15.08833137,0.0001916,53.215,146.7635,49.9681,310.1479,9.3544e-05,1.201e-05,0.0,0 STARLINK-3597,1 51898U 22022AY  23009.10142371  .00001201  00000-0  93544-4 0  9995,2 51898  53.2150 146.7635 0001916  49.9681 310.1479 15.08833137 48843,6917.901,95.438,541.092,538.441,0.0
51898.0,STARLINK-3597,PAYLOAD,2023-01-09 15:09:07,15.08845343,0.0002178,53.2151,144.3843,40.6875,319.4279,0.00017718,2.533e-05,0.0,0 STARLINK-3597,1 51898U 22022AY  23009.63133448  .00002533  00000-0  17718-3 0  9995,2 51898  53.2151 144.3843 0002178  40.6875 319.4279 15.08845343 48924,6917.864000000001,95.437,541.236,538.222,0.0
51898.0,STARLINK-3597,PAYLOAD,2023-01-10 02:16:49,15.08839604,0.0002179,53.2154,142.3028,39.4967,320.6184,8.5326e-05,1.07e-05,0.0,0 STARLINK-3597,1 51898U 22022AY  23010.09501985  .00001070  00000-0  85326-4 0  9998,2 51898  53.2154 142.3028 0002179  39.4967 320.6184 15.08839604 48998,6917.882,95.438,541.254,538.239,0.0
51898.0,STARLINK-3597,PAYLOAD,2023-01-10 14:59:55,15.088276,0.0001951,53.215,139.9235,39.4059,320.7074,0.00029932,4.477e-05,0.0,0 STARLINK-3597,1 51898U 22022AY  23010.62494383  .00004477  00000-0  29932-3 0  9994,2 51898  53.2150 139.9235 0001951  39.4059 320.7074 15.08827600 49077,6917.9180000000015,95.438,541.133,538.434,0.0
51898.0,STARLINK-3597,PAYLOAD,2023-01-10 18:10:40,15.08845597,0.0002235,53.2148,139.3297,39.0718,321.0435,0.00015702,2.212e-05,0.0,0 STARLINK-3597,1 51898U 22022AY  23010.75741421  .00002212  00000-0  15702-3 0  9991,2 51898  53.2148 139.3297 0002235  39.0718 321.0435 15.08845597 49092,6917.863,95.437,541.274,538.182,0.0
51898.0,STARLINK-3597,PAYLOAD,2023-01-11 14:50:42,15.0883224,0.0002059,53.2154,135.4629,39.504,320.6102,-3.7782e-05,-8.89e-06,0.0,0 STARLINK-3597,1 51898U 22022AY  23011.61855200 -.00000889  00000-0 -37782-4 0  9991,2 51898  53.2154 135.4629 0002059  39.5040 320.6102 15.08832240 49224,6917.904,95.438,541.194,538.345,0.0
51898.0,STARLINK-3597,PAYLOAD,2023-01-12 14:41:30,15.08833211,0.0002128,53.2152,131.0032,40.5974,319.5176,5.4116e-05,5.73e-06,0.0,0 STARLINK-3597,1 51898U 22022AY  23012.61215505  .00000573  00000-0  54116-4 0  9998,2 51898  53.2152 131.0032 0002128  40.5974 319.5176 15.08833211 49370,6917.901,95.438,541.238,538.294,0.0
51898.0,STARLINK-3597,PAYLOAD,2023-01-13 00:13:48,15.08843888,0.0002147,53.2143,129.2194,42.6795,317.4364,-0.00026141,-4.447e-05,0.0,0 STARLINK-3597,1 51898U 22022AY  23013.00959135 -.00004447  00000-0 -26141-3 0  9998,2 51898  53.2143 129.2194 0002147  42.6795 317.4364 15.08843888 49437,6917.8690000000015,95.437,541.219,538.248,0.0
51898.0,STARLINK-3597,PAYLOAD,2023-01-13 14:32:17,15.08842022,0.0002038,53.2144,126.5433,44.834,315.2817,0.00025936,3.842e-05,0.0,0 STARLINK-3597,1 51898U 22022AY  23013.60575806  .00003842  00000-0  25936-3 0  9990,2 51898  53.2144 126.5433 0002038  44.8340 315.2817 15.08842022 49521,6917.874,95.437,541.149,538.3290000000001,0.0
51898.0,STARLINK-3597,PAYLOAD,2023-01-14 03:15:23,15.08835419,0.0001909,53.2153,124.1677,54.4727,305.6443,0.0001262,1.721e-05,0.0,0 STARLINK-3597,1 51898U 22022AY  23014.13568319  .00001721  00000-0  12620-3 0  9990,2 51898  53.2153 124.1677 0001909  54.4727 305.6443 15.08835419 49606,6917.894,95.438,541.08,538.439,0.0
51898.0,STARLINK-3597,PAYLOAD,2023-01-14 14:23:04,15.088490599999998,0.0001756,53.2138,122.0851,50.5304,309.5843,0.00024788,3.66e-05,0.0,0 STARLINK-3597,1 51898U 22022AY  23014.59935623  .00003660  00000-0  24788-3 0  9998,2 51898  53.2138 122.0851 0001756  50.5304 309.5843 15.08849060 49679,6917.853,95.437,540.932,538.503,0.0
51898.0,STARLINK-3597,PAYLOAD,2023-01-15 03:06:10,15.08828603,0.0001895,53.2126,119.7074,67.5584,292.5609,-3.522e-05,-8.48e-06,0.0,0 STARLINK-3597,1 51898U 22022AY  23015.12928747 -.00000848  00000-0 -35220-4 0  9998,2 51898  53.2126 119.7074 0001895  67.5584 292.5609 15.08828603 49758,6917.915,95.438,541.091,538.469,0.0
51898.0,STARLINK-3597,PAYLOAD,2023-01-15 12:38:28,15.08836118,0.0001195,53.216,117.9164,68.4934,291.6185,-6.1068e-05,-1.259e-05,0.0,0 STARLINK-3597,1 51898U 22022AY  23015.52672369 -.00001259  00000-0 -61068-4 0  9994,2 51898  53.2160 117.9164 0001195  68.4934 291.6185 15.08836118 49814,6917.892,95.438,540.5840000000001,538.931,0.0
51898.0,STARLINK-3597,PAYLOAD,2023-01-15 15:49:15,15.08846323,0.0001796,53.2152,117.3262,55.8948,304.2214,6.7712e-05,7.9e-06,0.0,0 STARLINK-3597,1 51898U 22022AY  23015.65920213  .00000790  00000-0  67712-4 0  9991,2 51898  53.2152 117.3262 0001796  55.8948 304.2214 15.08846323 49835,6917.861,95.437,540.969,538.484,0.0
51898.0,STARLINK-3597,PAYLOAD,2023-01-16 10:53:52,15.08852257,0.0001543,53.2145,113.7569,68.7852,291.3305,0.00029988,4.489e-05,0.0,0 STARLINK-3597,1 51898U 22022AY  23016.45407825  .00004489  00000-0  29988-3 0  9990,2 51898  53.2145 113.7569 0001543  68.7852 291.3305 15.08852257 49957,6917.843000000001,95.437,540.775,538.641,0.0
51898.0,STARLINK-3597,PAYLOAD,2023-01-16 12:29:15,15.08855181,0.0001337,53.2151,113.4585,73.9484,286.1656,0.00027438,4.083e-05,0.0,0 STARLINK-3597,1 51898U 22022AY  23016.52031558  .00004083  00000-0  27438-3 0  9992,2 51898  53.2151 113.4585 0001337  73.9484 286.1656 15.08855181 49960,6917.834,95.437,540.624,538.774,0.0
51898.0,STARLINK-3597,PAYLOAD,2023-01-16 23:36:58,15.08838944,0.0001861,53.2157,111.379,75.2656,284.8542,0.00018194,2.609e-05,0.0,0 STARLINK-3597,1 51898U 22022AY  23016.98400624  .00002609  00000-0  18194-3 0  9997,2 51898  53.2157 111.3790 0001861  75.2656 284.8542 15.08838944 50036,6917.884,95.438,541.036,538.461,0.0
51898.0,STARLINK-3597,PAYLOAD,2023-01-17 12:20:04,15.08816129,0.0001476999999999,53.2138,109.0003,83.4341,276.6819,-8.902299999999999e-05,-1.704e-05,0.0,0 STARLINK-3597,1 51898U 22022AY  23017.51394228 -.00001704  00000-0 -89023-4 0  9996,2 51898  53.2138 109.0003 0001477  83.4341 276.6819 15.08816129 50117,6917.953,95.439,540.84,538.797,0.0
51898.0,STARLINK-3597,PAYLOAD,2023-01-18 07:24:41,15.08847576,0.0001498,53.2142,105.4304,96.2964,263.8199,0.00043058,6.573e-05,0.0,0 STARLINK-3597,1 51898U 22022AY  23018.30881298  .00006573  00000-0  43058-3 0  9996,2 51898  53.2142 105.4304 0001498  96.2964 263.8199 15.08847576 50234,6917.857,95.437,540.759,538.686,0.0
51898.0,STARLINK-3597,PAYLOAD,2023-01-18 12:10:50,15.08876526,0.000134,53.2147,104.5386,97.0463,263.0682,0.002201,0.0003495,0.0,0 STARLINK-3597,1 51898U 22022AY  23018.50753405  .00034950  00000-0  22010-2 0  9990,2 51898  53.2147 104.5386 0001340  97.0463 263.0682 15.08876526 50267,6917.769,95.435,540.561,538.707,0.0
51898.0,STARLINK-3597,PAYLOAD,2023-01-18 13:46:13,15.08882382,0.000137,53.2148,104.2415,94.2109,265.9039,0.0024046999999999,0.00038235,0.0,0 STARLINK-3597,1 51898U 22022AY  23018.57377245  .00038235  00000-0  24047-2 0  9993,2 51898  53.2148 104.2415 0001370  94.2109 265.9039 15.08882382 50272,6917.751,95.435,540.564,538.668,0.0
51898.0,STARLINK-3597,PAYLOAD,2023-01-19 05:40:04,15.08862036,9.53e-05,53.2152,101.2675,120.5395,239.5691,0.00083338,0.00013008,0.0,0 STARLINK-3597,1 51898U 22022AY  23019.23616688  .00013008  00000-0  83338-3 0  9994,2 51898  53.2152 101.2675 0000953 120.5395 239.5691 15.08862036 50374,6917.813,95.436,540.337,539.019,0.0
